     2.11           N: GPS NAV DATA                         RINEX VERSION / TYPE
teqc  2018Dec12     gpsops              20220317 01:04:10UTCPGM / RUN BY / DATE
Linux 2.6.32-573.12.1.x86_64|x86_64|gcc -static|Linux 64|=+ COMMENT
CHPI                                    MARKER NAME         COMMENT
41609M003                               MARKER NUMBER       COMMENT
4164613.9484 -4162456.9866 -2445028.7316                    COMMENT
                                                            COMMENT
This data is provided as a public service by NASA/JPL.      COMMENT
No warranty is expressed or implied regarding suitability   COMMENT
for use.  For further information, contact:                 COMMENT
Dave Stowers, NASA/JPL m/s 238-600                          COMMENT
4800 Oak Grove Drive, Pasadena CA 91109 USA                 COMMENT
                                                            END OF HEADER
15 22  3 16 11 59 44.0-7.636938244104D-05 2.955857780762D-12 0.000000000000D+00
    8.000000000000D+00-1.015625000000D+02 5.036281209899D-09-2.991760361548D+00
   -5.444511771202D-06 1.395954447798D-02 1.041963696480D-05 5.153760662079D+03
    3.023840000000D+05 1.583248376846D-07-4.559661719756D-01-2.123415470123D-07
    9.303930549481D-01 1.607812500000D+02 1.079581763977D+00-8.037477650349D-09
   -8.928943354902D-11 1.000000000000D+00 2.201000000000D+03 0.000000000000D+00
    2.000000000000D+00 0.000000000000D+00-1.071020960808D-08 8.000000000000D+00
    2.952180000000D+05 4.000000000000D+00
31 22  3 16 12  0  0.0-1.691658981144D-04-1.705302565824D-12 0.000000000000D+00
    6.700000000000D+01 5.665625000000D+01 4.954134931034D-09 9.126793406437D-01
    3.242865204811D-06 1.044185215142D-02 7.594004273415D-06 5.153700513840D+03
    3.024000000000D+05-9.313225746155D-09 7.403923752172D-01 1.545995473862D-07
    9.553003148812D-01 2.284687500000D+02 3.809199301126D-01-8.322132364503D-09
    3.410856361573D-10 1.000000000000D+00 2.201000000000D+03 0.000000000000D+00
    2.000000000000D+00 0.000000000000D+00-1.350417733192D-08 6.700000000000D+01
    2.952180000000D+05 4.000000000000D+00
 5 22  3 16 12  0  0.0-7.486855611205D-05-1.364242052659D-12 0.000000000000D+00
    3.500000000000D+01-5.337500000000D+01 4.859845289206D-09-1.582693053107D+00
   -2.648681402206D-06 5.881862132810D-03 1.678243279457D-06 5.153681591034D+03
    3.024000000000D+05 1.620501279831D-07-1.418337221976D+00 2.048909664154D-08
    9.595422506605D-01 3.396250000000D+02 1.006312724736D+00-8.473567243802D-09
   -6.750281176306D-11 1.000000000000D+00 2.201000000000D+03 0.000000000000D+00
    2.000000000000D+00 0.000000000000D+00-1.117587089539D-08 3.500000000000D+01
    2.952180000000D+05 4.000000000000D+00
16 22  3 16 12  0  0.0-4.812725819647D-04-4.320099833421D-12 0.000000000000D+00
    1.600000000000D+01-3.246875000000D+01 4.632692970257D-09-1.128571031273D+00
   -1.640990376472D-06 1.279629010241D-02 5.424022674561D-06 5.153610782623D+03
    3.024000000000D+05 2.998858690262D-07 1.854068556849D+00 1.024454832077D-07
    9.695489614231D-01 2.776875000000D+02 7.180617997105D-01-8.146767917013D-09
   -5.000208278745D-10 1.000000000000D+00 2.201000000000D+03 0.000000000000D+00
    2.000000000000D+00 0.000000000000D+00-1.024454832077D-08 1.600000000000D+01
    2.952180000000D+05 4.000000000000D+00
13 22  3 16 12  0  0.0 2.777907066047D-04 6.366462912410D-12 0.000000000000D+00
    5.000000000000D+01-5.940625000000D+01 4.138386666130D-09-2.531685350080D+00
   -3.164634108543D-06 5.825032945722D-03 1.220591366291D-05 5.153680448532D+03
    3.024000000000D+05 1.117587089539D-07-1.959504026694D-01-5.960464477539D-08
    9.690987937346D-01 1.475000000000D+02 9.444260834572D-01-7.669248026393D-09
    1.253623647028D-10 1.000000000000D+00 2.201000000000D+03 0.000000000000D+00
    2.000000000000D+00 0.000000000000D+00-1.117587089539D-08 5.000000000000D+01
    2.952180000000D+05 4.000000000000D+00
12 22  3 16 12  0  0.0-1.857164315879D-04-5.798028723802D-12 0.000000000000D+00
    4.300000000000D+01-3.359375000000D+01 4.722339561541D-09 7.270346179901D-01
   -1.784414052963D-06 8.733568247408D-03 5.392357707024D-06 5.153575977325D+03
    3.024000000000D+05-1.247972249985D-07 1.835457059960D+00-2.607703208923D-08
    9.696127900018D-01 2.825937500000D+02 1.259402718013D+00-8.311774790211D-09
   -5.368080744967D-10 1.000000000000D+00 2.201000000000D+03 0.000000000000D+00
    2.000000000000D+00 0.000000000000D+00-1.257285475731D-08 4.300000000000D+01
    2.952180000000D+05 4.000000000000D+00
27 22  3 16 12  0  0.0 1.557334326208D-04 1.250555214938D-11 0.000000000000D+00
    7.600000000000D+01 1.350000000000D+01 3.820873440430D-09-2.028320328049D+00
    6.295740604401D-07 1.040358759928D-02 1.173466444016D-05 5.153653545380D+03
    3.024000000000D+05 3.539025783539D-08 2.810443409929D+00-1.266598701477D-07
    9.733388423497D-01 1.604687500000D+02 6.520453114359D-01-7.495312209839D-09
   -2.496532562031D-10 1.000000000000D+00 2.201000000000D+03 0.000000000000D+00
    2.000000000000D+00 0.000000000000D+00 1.396983861923D-09 7.600000000000D+01
    2.979180000000D+05 4.000000000000D+00
32 22  3 16 12  0  0.0-8.587446063757D-05-7.389644451905D-12 0.000000000000D+00
    3.900000000000D+01-6.625000000000D+01 4.441970740197D-09-1.399071474474D+00
   -3.412365913391D-06 5.756993079558D-03 1.148693263531D-05 5.153582172394D+03
    3.024000000000D+05 1.098960638046D-07-3.378712293500D-01 9.313225746155D-09
    9.584463392286D-01 1.553125000000D+02-2.320344367497D+00-7.862827518327D-09
   -5.714523747137D-12 1.000000000000D+00 2.201000000000D+03 0.000000000000D+00
    2.000000000000D+00 0.000000000000D+00 4.656612873077D-10 3.900000000000D+01
    2.982780000000D+05 4.000000000000D+00
22 22  3 16 11 59 44.0 2.283635549247D-04 5.798028723802D-12 0.000000000000D+00
    1.800000000000D+01-5.456250000000D+01 4.279106813403D-09-2.196263740480D+00
   -2.829357981682D-06 1.307250268292D-02 1.180358231068D-05 5.153672658920D+03
    3.023840000000D+05 1.676380634308D-07-2.477137093560D-01 2.235174179077D-08
    9.617826072947D-01 1.476875000000D+02-1.866412789801D+00-7.616031523997D-09
    1.321483616526D-10 1.000000000000D+00 2.201000000000D+03 0.000000000000D+00
    2.000000000000D+00 0.000000000000D+00-9.778887033463D-09 1.800000000000D+01
    3.008760000000D+05 4.000000000000D+00
10 22  3 16 14  0  0.0-3.487006761134D-04-1.148237060988D-11 0.000000000000D+00
    7.600000000000D+01-5.493750000000D+01 4.569833209039D-09 1.044754153724D+00
   -2.907589077950D-06 7.534825010225D-03 2.548098564148D-06 5.153677631378D+03
    3.096000000000D+05-7.450580596924D-08-1.380371497374D+00 4.656612873077D-08
    9.723664728866D-01 3.369375000000D+02-2.498800500888D+00-8.402135696963D-09
   -1.964367538078D-10 1.000000000000D+00 2.201000000000D+03 0.000000000000D+00
    2.000000000000D+00 0.000000000000D+00 2.328306436539D-09 7.600000000000D+01
    3.024180000000D+05 4.000000000000D+00
23 22  3 16 14  0  0.0-7.288996130228D-06-3.183231456205D-12 0.000000000000D+00
    1.400000000000D+02-5.078125000000D+01 4.684123683982D-09 2.345277699556D+00
   -2.667307853699D-06 1.998601481318D-03 1.892447471619D-06 5.153701919556D+03
    3.096000000000D+05 9.313225746155D-09-1.405387991937D+00 2.235174179077D-08
    9.674221564902D-01 3.429062500000D+02 2.991071872801D+00-8.403207170165D-09
   -1.007184810433D-10 1.000000000000D+00 2.201000000000D+03 0.000000000000D+00
    2.000000000000D+00 0.000000000000D+00-8.381903171539D-09 1.400000000000D+02
    3.024180000000D+05 4.000000000000D+00
18 22  3 16 14  0  0.0 2.185082994401D-04-8.753886504564D-12 0.000000000000D+00
    1.030000000000D+02 1.053750000000D+02 4.277678182467D-09-2.958227149989D+00
    5.541369318962D-06 2.133187954314D-03 6.549060344696D-06 5.153612558365D+03
    3.096000000000D+05-3.725290298462D-08-2.405276965852D+00 0.000000000000D+00
    9.710042679396D-01 2.583125000000D+02 3.088192565399D+00-8.055335537058D-09
    4.382325398586D-10 1.000000000000D+00 2.201000000000D+03 0.000000000000D+00
    2.000000000000D+00 0.000000000000D+00-8.381903171539D-09 8.710000000000D+02
    3.024180000000D+05 4.000000000000D+00
26 22  3 16 14  0  0.0 1.912498846650D-04 3.069544618484D-12 0.000000000000D+00
    5.600000000000D+01-2.459375000000D+01 5.604162007271D-09 8.469145620538D-01
   -1.028180122375D-06 6.916117970832D-03 4.051253199577D-06 5.153708892822D+03
    3.096000000000D+05 2.607703208923D-08 1.710695156383D+00 5.029141902924D-08
    9.378888014160D-01 2.857500000000D+02 3.826215569237D-01-8.754293222880D-09
   -4.121600252623D-10 1.000000000000D+00 2.201000000000D+03 0.000000000000D+00
    2.000000000000D+00 0.000000000000D+00 6.984919309616D-09 5.600000000000D+01
    3.024180000000D+05 4.000000000000D+00
16 22  3 16 14  0  0.0-4.813042469323D-04-4.320099833421D-12 0.000000000000D+00
    4.400000000000D+01-3.215625000000D+01 4.798771316659D-09-7.832889983308D-02
   -1.566484570503D-06 1.279662910383D-02 5.202367901802D-06 5.153611598969D+03
    3.096000000000D+05-7.450580596924D-09 1.854008657668D+00 1.378357410431D-07
    9.695440284633D-01 2.809687500000D+02 7.180402275205D-01-8.438208628117D-09
   -5.039495629507D-10 1.000000000000D+00 2.201000000000D+03 0.000000000000D+00
    2.000000000000D+00 0.000000000000D+00-1.024454832077D-08 4.400000000000D+01
    3.024180000000D+05 4.000000000000D+00
27 22  3 16 14  0  0.0 1.558233052492D-04 1.239186531166D-11 0.000000000000D+00
    9.200000000000D+01 5.968750000000D+00 3.922306236941D-09-9.780493946774D-01
    2.756714820862D-07 1.040408923291D-02 1.144781708717D-05 5.153655208588D+03
    3.096000000000D+05 2.607703208923D-07 2.810390063158D+00 1.229345798492D-07
    9.733356093007D-01 1.662187500000D+02 6.519621869677D-01-7.733179260814D-09
   -4.425184326689D-10 1.000000000000D+00 2.201000000000D+03 0.000000000000D+00
    2.000000000000D+00 0.000000000000D+00 1.396983861923D-09 9.200000000000D+01
    3.024180000000D+05 4.000000000000D+00
